NAYIF-1 (EO-88)         
1 42017U 17008BX  20081.17861385  .00001545  00000-0  62441-4 0  9996
2 42017  97.3686 150.0044 0004525 274.3729  85.6993 15.26237651172085
MAX VALIER SAT          
1 42778U 17036P   20081.14368038  .00000911  00000-0  42294-4 0  9995
2 42778  97.3165 137.1757 0011413 340.7889  19.2916 15.22457733152297
RADFXSAT (FOX-1B)       
1 43017U 17073E   20081.70252138  .00000876  00000-0  73808-4 0  9993
2 43017  97.7260 357.3122 0256801 336.5803  22.3876 14.78848156126190
FOX-1D (AO-92)          
1 43137U 18004AC  20081.17534890  .00001081  00000-0  47622-4 0  9994
2 43137  97.4536 152.9091 0009464  16.4632 343.6911 15.23948174121595
ES'HAIL 2               
1 43700U 18090A   20081.77757641  .00000126  00000-0  00000+0 0  9995
2 43700   0.0122 139.9838 0002375 258.4459  87.0227  1.00274494  5075
FOX-1CLIFF (AO-95)      
1 43770U 18099N   20081.15724961  .00000552  00000-0  55673-4 0  9996
2 43770  97.7135 154.0479 0015913 128.5245 231.7405 14.94932062 70729
ITASAT 1                
1 43786U 18099AE  20081.17441414 -.00000091  00000-0 -29979-5 0  9995
2 43786  97.7150 154.4210 0016505 122.8262 237.4551 14.95279520 70745
JY1SAT (JO-97)          
1 43803U 18099AX  20081.73432936  .00000452  00000-0  45964-4 0  9996
2 43803  97.7105 154.8126 0016546 122.0868 238.1962 14.95441504 70820
PSAT2 (NO-104)          
1 44354U 19036R   20080.79523728  .00013173  00000-0  19610-3 0  9997
2 44354  28.5280 242.2115 0371870  85.2027 279.0915 15.01636551 40464
BRICSAT2 (NO-103)       
1 44355U 19036S   20081.47886240  .00028129  00000-0  40942-3 0  9994
2 44355  28.5275 233.1445 0356799  99.9274 264.1775 15.05412483 40619
JAISAT-1                
1 44419U 19038F   20081.44588549  .00001074  00000-0  64864-4 0  9995
2 44419  97.5285  44.1374 0023372  75.0860 285.2956 15.12628125 39299
DUCHIFAT-3              
1 44854U 19089C   20081.76983190  .00000385  00000-0  37639-4 0  9994
2 44854  36.9667 256.5210 0007291  60.5717 299.5754 14.98998768 15130
HUSKYSAT-1              
1 45119U 19071J   20081.67690990  .00001765  00000-0  65619-4 0  9995
2 45119  51.6429  67.3704 0012951  96.9003 263.3453 15.33245959  7651
